[{"OBJECT_NAME":"STARLINK-34457","OBJECT_ID":"2025-126AA","EPOCH":"2026-03-09T22:04:11.751744","MEAN_MOTION":14.98334339,"ECCENTRICITY":0.00026202,"INCLINATION":70.0031,"RA_OF_ASC_NODE":33.9814,"ARG_OF_PERICENTER":276.2497,"MEAN_ANOMALY":83.8364,"EPHEMERIS_TYPE":0,"CLASSIFICATION_TYPE":"U","NORAD_CAT_ID":64368,"ELEMENT_SET_NO":999,"REV_AT_EPOCH":4071,"BSTAR":0.00046824394,"MEAN_MOTION_DOT":5.499e-5,"MEAN_MOTION_DDOT":0},{"OBJECT_NAME":"CZ-6A DEB","OBJECT_ID":"2024-140AF","EPOCH":"2026-03-09T22:09:11.094912","MEAN_MOTION":15.07921552,"ECCENTRICITY":0.0088688,"INCLINATION":88.2867,"RA_OF_ASC_NODE":226.5959,"ARG_OF_PERICENTER":92.2632,"MEAN_ANOMALY":268.8765,"EPHEMERIS_TYPE":0,"CLASSIFICATION_TYPE":"U","NORAD_CAT_ID":60630,"ELEMENT_SET_NO":999,"REV_AT_EPOCH":8531,"BSTAR":0.0046395908,"MEAN_MOTION_DOT":0.00078672,"MEAN_MOTION_DDOT":0}]
